*******************************************************************************
Ephemeris / WWW_USER Mon Mar 10 20:37:37 2025 Pasadena, USA      / Horizons    
*******************************************************************************
Target body name: (2018 RY7)                      {source: JPL#20}
Center body name: Earth (399)                     {source: DE441}
Center-site name: Gemini South Obs., Cerro Pachon
*******************************************************************************
Start time      : A.D. 2018-Sep-18 22:45:00.0000 UT      
Stop  time      : A.D. 2018-Sep-19 10:28:00.0000 UT      
Step-size       : 1 minutes
*******************************************************************************
Target pole/equ : undefined
Target radii    : undefined                                                    
Center geodetic : 289.2634, -30.2406227, 2.71233  {E-lon(deg),Lat(deg),Alt(km)}
Center cylindric: 289.2634,5517.21435,-3194.81213 {E-lon(deg),Dxy(km),Dz(km)}
Center pole/equ : ITRF93                          {East-longitude positive}
Center radii    : 6378.137, 6378.137, 6356.752 km {Equator_a, b, pole_c}       
Target primary  : Sun
Vis. interferer : MOON (R_eq= 1737.400) km        {source: DE441}
Rel. light bend : Sun                             {source: DE441}
Rel. lght bnd GM: 1.3271E+11 km^3/s^2                                          
Small-body perts: Yes                             {source: SB441-N16}
Atmos refraction: NO (AIRLESS)
RA format       : HMS
Time format     : CAL 
Calendar mode   : Mixed Julian/Gregorian
RTS-only print  : NO       
EOP file        : eop.250310.p250606                                           
EOP coverage    : DATA-BASED 1962-JAN-20 TO 2025-MAR-10. PREDICTS-> 2025-JUN-05
Units conversion: 1 au= 149597870.700 km, c= 299792.458 km/s, 1 day= 86400.0 s 
Table cut-offs 1: Elevation (-90.0deg=NO ),Airmass (>38.000=NO), Daylight (YES)
Table cut-offs 2: Solar elongation (  0.0,180.0=NO ),Local Hour Angle( 0.0=NO )
Table cut-offs 3: RA/DEC angular rate (     0.0=NO )                           
*******************************************************************************
Initial IAU76/J2000 heliocentric ecliptic osculating elements (au, days, deg.):
  EPOCH=  2458422.5 ! 2018-Oct-31.00 (TDB)         Residual RMS= .22459        
   EC= .1470549687381346   QR= .8667733479166969   TP= 2458516.8896767548      
   OM= 2.838668085760325   W=  136.9006026425241   IN= 13.35135890147074       
  Equivalent ICRF heliocentric cartesian coordinates (au, au/d):
   X= 8.791791513870114E-01  Y= 4.508422091141234E-01  Z= 3.244113040133835E-01
  VX=-1.085418916943652E-02 VY= 1.006005810562689E-02 VZ= 7.673980932675997E-03
Asteroid physical parameters (km, seconds, rotational period in hours):        
   GM= n.a.                RAD= n.a.               ROTPER= n.a.                
   H= 24.4                 G= .150                 B-V= n.a.                   
                           ALBEDO= n.a.            STYP= n.a.                  
*******************************************************************************
 Date__(UT)__HR:MN     R.A._________(ICRF)_________DEC
******************************************************
$$SOE
 2018-Sep-19 00:48  m  00 58 34.921815 -06 05 54.94746
 2018-Sep-19 00:49  m  00 58 34.699991 -06 05 52.62516
 2018-Sep-19 00:50  m  00 58 34.478085 -06 05 50.30273
 2018-Sep-19 00:51  m  00 58 34.256096 -06 05 47.98019
 2018-Sep-19 00:52  m  00 58 34.034024 -06 05 45.65753
 2018-Sep-19 00:53  m  00 58 33.811870 -06 05 43.33475
 2018-Sep-19 00:54  m  00 58 33.589633 -06 05 41.01185
 2018-Sep-19 00:55  m  00 58 33.367314 -06 05 38.68883
 2018-Sep-19 00:56  m  00 58 33.144913 -06 05 36.36569
 2018-Sep-19 00:57  m  00 58 32.922429 -06 05 34.04242
 2018-Sep-19 00:58  m  00 58 32.699864 -06 05 31.71904
 2018-Sep-19 00:59  m  00 58 32.477217 -06 05 29.39553
 2018-Sep-19 01:00  m  00 58 32.254487 -06 05 27.07190
 2018-Sep-19 01:01  m  00 58 32.031676 -06 05 24.74814
 2018-Sep-19 01:02  m  00 58 31.808784 -06 05 22.42426
 2018-Sep-19 01:03  m  00 58 31.585809 -06 05 20.10026
 2018-Sep-19 01:04  m  00 58 31.362753 -06 05 17.77613
 2018-Sep-19 01:05  m  00 58 31.139616 -06 05 15.45188
 2018-Sep-19 01:06  m  00 58 30.916398 -06 05 13.12750
 2018-Sep-19 01:07  m  00 58 30.693098 -06 05 10.80299
 2018-Sep-19 01:08  m  00 58 30.469718 -06 05 08.47836
 2018-Sep-19 01:09  m  00 58 30.246256 -06 05 06.15360
 2018-Sep-19 01:10  m  00 58 30.022713 -06 05 03.82871
 2018-Sep-19 01:11  m  00 58 29.799090 -06 05 01.50369
 2018-Sep-19 01:12  m  00 58 29.575386 -06 04 59.17854
 2018-Sep-19 01:13  m  00 58 29.351602 -06 04 56.85327
 2018-Sep-19 01:14  m  00 58 29.127737 -06 04 54.52786
 2018-Sep-19 01:15  m  00 58 28.903793 -06 04 52.20232
 2018-Sep-19 01:16  m  00 58 28.679767 -06 04 49.87665
 2018-Sep-19 01:17  m  00 58 28.455662 -06 04 47.55085
 2018-Sep-19 01:18  m  00 58 28.231477 -06 04 45.22492
 2018-Sep-19 01:19  m  00 58 28.007212 -06 04 42.89886
 2018-Sep-19 01:20  m  00 58 27.782868 -06 04 40.57266
 2018-Sep-19 01:21  m  00 58 27.558444 -06 04 38.24633
 2018-Sep-19 01:22  m  00 58 27.333940 -06 04 35.91987
 2018-Sep-19 01:23  m  00 58 27.109358 -06 04 33.59327
 2018-Sep-19 01:24  m  00 58 26.884696 -06 04 31.26654
 2018-Sep-19 01:25  m  00 58 26.659955 -06 04 28.93967
 2018-Sep-19 01:26  m  00 58 26.435135 -06 04 26.61267
 2018-Sep-19 01:27  m  00 58 26.210236 -06 04 24.28553
 2018-Sep-19 01:28  m  00 58 25.985259 -06 04 21.95825
 2018-Sep-19 01:29  m  00 58 25.760203 -06 04 19.63084
 2018-Sep-19 01:30  m  00 58 25.535069 -06 04 17.30328
 2018-Sep-19 01:31  m  00 58 25.309857 -06 04 14.97559
 2018-Sep-19 01:32  m  00 58 25.084567 -06 04 12.64777
 2018-Sep-19 01:33  m  00 58 24.859199 -06 04 10.31980
 2018-Sep-19 01:34  m  00 58 24.633753 -06 04 07.99169
 2018-Sep-19 01:35  m  00 58 24.408229 -06 04 05.66344
 2018-Sep-19 01:36  m  00 58 24.182628 -06 04 03.33506
 2018-Sep-19 01:37  m  00 58 23.956949 -06 04 01.00653
 2018-Sep-19 01:38  m  00 58 23.731194 -06 03 58.67786
 2018-Sep-19 01:39  m  00 58 23.505361 -06 03 56.34905
 2018-Sep-19 01:40  m  00 58 23.279451 -06 03 54.02009
 2018-Sep-19 01:41  m  00 58 23.053465 -06 03 51.69100
 2018-Sep-19 01:42  m  00 58 22.827402 -06 03 49.36176
 2018-Sep-19 01:43  m  00 58 22.601262 -06 03 47.03238
 2018-Sep-19 01:44  m  00 58 22.375047 -06 03 44.70285
 2018-Sep-19 01:45  m  00 58 22.148755 -06 03 42.37318
 2018-Sep-19 01:46  m  00 58 21.922387 -06 03 40.04336
 2018-Sep-19 01:47  m  00 58 21.695944 -06 03 37.71340
 2018-Sep-19 01:48  m  00 58 21.469424 -06 03 35.38329
 2018-Sep-19 01:49  m  00 58 21.242830 -06 03 33.05304
 2018-Sep-19 01:50  m  00 58 21.016160 -06 03 30.72263
 2018-Sep-19 01:51  m  00 58 20.789415 -06 03 28.39209
 2018-Sep-19 01:52  m  00 58 20.562594 -06 03 26.06139
 2018-Sep-19 01:53  m  00 58 20.335700 -06 03 23.73055
 2018-Sep-19 01:54  m  00 58 20.108730 -06 03 21.39955
 2018-Sep-19 01:55  m  00 58 19.881686 -06 03 19.06841
 2018-Sep-19 01:56  m  00 58 19.654568 -06 03 16.73712
 2018-Sep-19 01:57  m  00 58 19.427375 -06 03 14.40568
 2018-Sep-19 01:58  m  00 58 19.200109 -06 03 12.07409
 2018-Sep-19 01:59  m  00 58 18.972769 -06 03 09.74235
 2018-Sep-19 02:00  m  00 58 18.745355 -06 03 07.41045
 2018-Sep-19 02:01  m  00 58 18.517868 -06 03 05.07841
 2018-Sep-19 02:02  m  00 58 18.290307 -06 03 02.74621
 2018-Sep-19 02:03  m  00 58 18.062674 -06 03 00.41386
 2018-Sep-19 02:04  m  00 58 17.834968 -06 02 58.08136
 2018-Sep-19 02:05  m  00 58 17.607189 -06 02 55.74870
 2018-Sep-19 02:06  m  00 58 17.379337 -06 02 53.41589
 2018-Sep-19 02:07  m  00 58 17.151414 -06 02 51.08293
 2018-Sep-19 02:08  m  00 58 16.923418 -06 02 48.74981
 2018-Sep-19 02:09  m  00 58 16.695350 -06 02 46.41654
 2018-Sep-19 02:10  m  00 58 16.467210 -06 02 44.08311
 2018-Sep-19 02:11  m  00 58 16.238999 -06 02 41.74953
 2018-Sep-19 02:12  m  00 58 16.010717 -06 02 39.41579
 2018-Sep-19 02:13  m  00 58 15.782363 -06 02 37.08189
 2018-Sep-19 02:14  m  00 58 15.553938 -06 02 34.74784
 2018-Sep-19 02:15  m  00 58 15.325443 -06 02 32.41363
 2018-Sep-19 02:16  m  00 58 15.096877 -06 02 30.07926
 2018-Sep-19 02:17  m  00 58 14.868241 -06 02 27.74473
 2018-Sep-19 02:18  m  00 58 14.639534 -06 02 25.41004
 2018-Sep-19 02:19  m  00 58 14.410758 -06 02 23.07520
 2018-Sep-19 02:20  m  00 58 14.181911 -06 02 20.74019
 2018-Sep-19 02:21  m  00 58 13.952996 -06 02 18.40503
 2018-Sep-19 02:22  m  00 58 13.724010 -06 02 16.06970
 2018-Sep-19 02:23  m  00 58 13.494956 -06 02 13.73421
 2018-Sep-19 02:24  m  00 58 13.265833 -06 02 11.39857
 2018-Sep-19 02:25  m  00 58 13.036641 -06 02 09.06276
 2018-Sep-19 02:26  m  00 58 12.807380 -06 02 06.72679
 2018-Sep-19 02:27  m  00 58 12.578051 -06 02 04.39066
 2018-Sep-19 02:28  m  00 58 12.348654 -06 02 02.05436
 2018-Sep-19 02:29  m  00 58 12.119189 -06 01 59.71790
 2018-Sep-19 02:30  m  00 58 11.889657 -06 01 57.38128
 2018-Sep-19 02:31  m  00 58 11.660057 -06 01 55.04449
 2018-Sep-19 02:32  m  00 58 11.430389 -06 01 52.70754
 2018-Sep-19 02:33  m  00 58 11.200655 -06 01 50.37043
 2018-Sep-19 02:34  m  00 58 10.970854 -06 01 48.03315
 2018-Sep-19 02:35  m  00 58 10.740986 -06 01 45.69571
 2018-Sep-19 02:36  m  00 58 10.511052 -06 01 43.35810
 2018-Sep-19 02:37  m  00 58 10.281052 -06 01 41.02032
 2018-Sep-19 02:38  m  00 58 10.050986 -06 01 38.68238
 2018-Sep-19 02:39  m  00 58 09.820854 -06 01 36.34427
 2018-Sep-19 02:40  m  00 58 09.590657 -06 01 34.00599
 2018-Sep-19 02:41  m  00 58 09.360394 -06 01 31.66754
 2018-Sep-19 02:42  m  00 58 09.130067 -06 01 29.32893
 2018-Sep-19 02:43  m  00 58 08.899674 -06 01 26.99015
 2018-Sep-19 02:44  m  00 58 08.669217 -06 01 24.65120
 2018-Sep-19 02:45  m  00 58 08.438696 -06 01 22.31208
 2018-Sep-19 02:46  m  00 58 08.208111 -06 01 19.97279
 2018-Sep-19 02:47  m  00 58 07.977461 -06 01 17.63333
 2018-Sep-19 02:48  m  00 58 07.746749 -06 01 15.29371
 2018-Sep-19 02:49  m  00 58 07.515972 -06 01 12.95391
 2018-Sep-19 02:50  m  00 58 07.285133 -06 01 10.61394
